43249,IRIDIUM 144,2018,100.4,860.0,+,86.4,Active,1,LEO,USA,USA,Commercial/Government,Communications,Falcon,1 43249U 18030A   24265.52315001  .00000809  00000+0  28188-3 0  9996,2 43249  86.4035 195.2287 0002373  88.8355 271.3112 14.34217721339314,14.34217721,0.0002373,LEO
43251,IRIDIUM 157,2018,100.4,860.0,+,86.4,Active,1,LEO,USA,USA,Commercial/Government,Communications,Falcon,1 43251U 18030C   24265.54851102  .00000725  00000+0  25192-3 0  9997,2 43251  86.4041 195.2309 0002605  79.3233 280.8256 14.34212721339316,14.34212721,0.0002605,LEO
43252,IRIDIUM 140,2018,100.4,860.0,+,86.4,Active,1,LEO,USA,USA,Commercial/Government,Communications,Falcon,1 43252U 18030D   24265.56753051  .00000137  00000+0  41895-4 0  9990,2 43252  86.4037 195.2377 0002074  86.9224 273.2209 14.34217498339377,14.34217498,0.0002074,LEO
43253,IRIDIUM 145,2018,100.4,860.0,+,86.4,Active,1,LEO,USA,USA,Commercial/Government,Communications,Falcon,1 43253U 18030E   24265.55485163  .00000709  00000+0  24618-3 0  9994,2 43253  86.4037 195.2164 0002376  93.6817 266.4651 14.34221957339303,14.34221957,0.0002376,LEO
43254,IRIDIUM 146,2018,100.4,860.0,+,86.4,Active,1,LEO,USA,USA,Commercial/Government,Communications,Falcon,1 43254U 18030F   24265.81490340  .00000749  00000+0  26021-3 0  9991,2 43254  86.4035 195.1224 0002291  90.5706 269.5752 14.34218797339356,14.34218797,0.0002291,LEO
43255,IRIDIUM 148,2018,100.4,860.0,+,86.4,Active,1,LEO,USA,USA,Commercial/Government,Communications,Falcon,1 43255U 18030G   24265.57388172  .00000666  00000+0  23068-3 0  9990,2 43255  86.4038 195.2561 0002484  86.9445 273.2035 14.34215801339357,14.34215801,0.0002484,LEO
43256,IRIDIUM 142,2018,100.4,860.0,+,86.4,Active,1,LEO,USA,USA,Commercial/Government,Communications,Falcon,1 43256U 18030H   24265.54216976  .00000997  00000+0  34910-3 0  9995,2 43256  86.4033 195.1815 0002606  92.3228 267.8266 14.34212211339313,14.34212211,0.0002606,LEO
